[{"OBJECT_NAME":"STARLINK-30470","OBJECT_ID":"2023-146B","EPOCH":"2026-03-09T22:00:01.999584","MEAN_MOTION":15.12627424,"ECCENTRICITY":0.00017316,"INCLINATION":42.9994,"RA_OF_ASC_NODE":312.1287,"ARG_OF_PERICENTER":249.3024,"MEAN_ANOMALY":345.016,"EPHEMERIS_TYPE":0,"CLASSIFICATION_TYPE":"U","NORAD_CAT_ID":57892,"ELEMENT_SET_NO":999,"REV_AT_EPOCH":573,"BSTAR":0.087605194,"MEAN_MOTION_DOT":0.01705465,"MEAN_MOTION_DDOT":0},{"OBJECT_NAME":"BUZZER-1","OBJECT_ID":"2025-009A","EPOCH":"2026-03-09T17:24:25.753248","MEAN_MOTION":15.20823037,"ECCENTRICITY":0.00067423,"INCLINATION":97.3973,"RA_OF_ASC_NODE":148.7619,"ARG_OF_PERICENTER":334.5264,"MEAN_ANOMALY":25.5639,"EPHEMERIS_TYPE":0,"CLASSIFICATION_TYPE":"U","NORAD_CAT_ID":62609,"ELEMENT_SET_NO":999,"REV_AT_EPOCH":6357,"BSTAR":0.00037809783,"MEAN_MOTION_DOT":8.28e-5,"MEAN_MOTION_DDOT":0}]
